CZ-4B R/B               
1 28415U 04035C   25250.05555113  .00009421  00000+0  37102-3 0  9992
2 28415  97.3745 281.7558 0033150 257.5447 102.2081 15.25311573151889
CZ-2C R/B               
1 28480U 04046B   25250.26040586  .00000336  00000+0  14047-3 0  9991
2 28480  98.1906 171.6791 0139259 337.8482  21.6719 14.26873099 82345
ARIANE 5 R/B            
1 28499U 04049H   25250.15356634  .00001475  00000+0  17088-3 0  9999
2 28499  98.2447  47.0411 0084204 225.2319 134.2023 14.84672744118559
CZ-2D R/B               
1 28738U 05024B   25250.26819677  .00025250  00000+0  50268-3 0  9996
2 28738  97.3693 255.5972 0004822   5.8763 354.2543 15.46894649111316
ALOS (DAICHI)           
1 28931U 06002A   25250.12498396  .00002739  00000+0  47560-3 0  9992
2 28931  98.0911 202.4208 0002002 107.6369 252.5055 14.68992544 46520
H-2A R/B                
1 28932U 06002B   25250.24802486  .00012475  00000+0  69844-3 0  9992
2 28932  98.2213  17.3818 0057700 143.6273 216.8898 15.12154622 66670
RESURS-DK 1             
1 29228U 06021A   25250.29276021  .00003798  00000+0  23063-3 0  9998
2 29228  69.9368 350.9316 0003633 352.0749   8.0358 15.11387172 59800
CZ-4B R/B               
1 29507U 06046C   25250.21699411  .00005587  00000+0  30251-3 0  9994
2 29507  97.5889 290.6215 0035230 179.7119 180.4139 15.14503848 32251
CZ-2C R/B               
1 31114U 07010B   25250.26789201  .00000191  00000+0  10664-3 0  9997
2 31114  98.3881   7.8268 0060178 107.3312 253.4460 14.20157104953689
COSMO-SKYMED 1          
1 31598U 07023A   25250.29074098  .00003214  00000+0  30071-3 0  9994
2 31598  97.8891  75.1073 0001287  83.0016 277.1351 14.94818326987487
COSMOS 2428             
1 31792U 07029A   25250.24123689 -.00000055  00000+0 -40276-5 0  9994
2 31792  70.9418 228.4433 0004102 213.5658 146.5204 14.12904445938181
SL-16 R/B               
1 31793U 07029B   25250.24248122 -.00000152  00000+0 -53800-4 0  9999
2 31793  70.9758 197.9902 0002971 273.0043 189.8703 14.14794361939429
KORONAS-FOTON           
1 33504U 09003A   25250.10761826  .00013121  00000+0  34773-3 0  9996
2 33504  82.4298 105.9797 0013327  94.5886 265.6881 15.38112153917478
CZ-2C R/B               
1 37731U 11030B   25250.14872036  .00002003  00000+0  26301-3 0  9990
2 37731  97.8226 206.5253 0052095 226.4599 143.3105 14.80441020762936
H-2A R/B                
1 38341U 12025E   25250.12436384  .00004307  00000+0  40746-3 0  9991
2 38341  98.4415 198.0821 0045771 190.9314 169.0914 14.93477144720803
SHIJIAN-16 (SJ-16)      
1 39358U 13057A   25250.22879284  .00002508  00000+0  25248-3 0  9998
2 39358  74.9738 172.1911 0017443 201.6007 158.4447 14.91532613644142
SL-4 R/B                
1 39679U 14021B   25250.12019148  .00017274  00000+0  44788-3 0  9996
2 39679  51.6094 148.8374 0110020 156.2445 204.3671 15.33111781628052
ALOS-2                  
1 39766U 14029A   25250.29858300  .00002426  00000+0  33166-3 0  9991
2 39766  97.9228 346.5237 0001388  93.5213 266.6157 14.79470498609756
YAOGAN-29               
1 41038U 15069A   25250.32186865  .00000682  00000+0  91239-4 0  9993
2 41038  98.0323 273.1230 0001194 159.9751 200.1510 14.82725821528704
ASTRO-H (HITOMI)        
1 41337U 16012A   25249.97745003  .00004364  00000+0  26710-3 0  9990
2 41337  30.9992 100.7393 0010203 288.0657  71.8868 15.08483422524452
HXMT (HUIYAN)           
1 42758U 17034A   25250.29837711  .00006565  00000+0  35594-3 0  9993
2 42758  43.0151 314.1548 0033219 159.3517 200.8680 15.14683376454705
CZ-2C R/B               
1 43521U 18054D   25249.88633019  .00057354  00000+0  72381-3 0  9990
2 43521  35.1367 108.6378 0032389 303.7931  55.9715 15.57788704399876
SAOCOM 1A               
1 43641U 18076A   25250.26681146  .00000661  00000+0  89560-4 0  9992
2 43641  97.8900  76.0690 0001344  90.0358 270.1009 14.82144715374198
H-2A R/B                
1 43682U 18084L   25250.21580210  .00018653  00000+0  58282-3 0  9997
2 43682  98.8825  64.6634 0030229 296.6350  63.1791 15.32802662377594
SAOCOM 1B               
1 46265U 20059A   25250.29807470  .00000689  00000+0  93171-4 0  9997
2 46265  97.8909  75.2068 0001503  91.2159 268.9226 14.82148287271584
CSS (TIANHE)            
1 48274U 21035A   25250.23863369  .00024100  00000+0  30217-3 0  9992
2 48274  41.4638 243.3181 0005783 302.3614  57.6664 15.59164330248956
COSMOS 2550             
1 48865U 21056A   25250.28405472  .00000172  00000+0  11047-4 0  9997
2 48865  67.1414 235.7574 0008399 269.5418  90.4774 15.33831390235336
CZ-2C R/B               
1 52794U 22058K   25250.19762478  .00024377  00000+0  53080-3 0  9993
2 52794  50.1923 173.5080 0054240 154.8031 205.5599 15.42536161181706
GSLV R/B                
1 54149U 22138AN  25250.18020727  .00003757  00000+0  33717-3 0  9995
2 54149  87.3780 227.7857 0025065  97.6226 262.7853 14.95227418156497
XRISM                   
1 57800U 23137A   25250.09939328  .00009671  00000+0  59288-3 0  9990
2 57800  31.0029  28.7697 0008316 356.2170   3.8404 15.08859037110016
ACS3                    
1 59588U 24077B   25250.22545420  .00019067  00000+0  18016-1 0  9992
2 59588  97.4002 226.9537 0050918 359.6279   0.4833 13.80514657 68807
